STARLINK-31015          
1 58521U 23191P   26068.80543764  .00023376  00000+0  87806-3 0  9998
2 58521  42.9962 102.3866 0000772 289.0171  71.0596 15.26752131125464
FLOCK 4G-26             
1 62633U 25009AA  26068.80489479  .00011283  00000+0  42469-3 0  9999
2 62633  97.4054 151.3913 0001988 299.1273  60.9767 15.27281631 63733
