[{"OBJECT_NAME":"STARLINK-31015","OBJECT_ID":"2023-191P","EPOCH":"2026-03-09T19:19:49.812960","MEAN_MOTION":15.26752131,"ECCENTRICITY":7.72e-5,"INCLINATION":42.9962,"RA_OF_ASC_NODE":102.3866,"ARG_OF_PERICENTER":289.0171,"MEAN_ANOMALY":71.0596,"EPHEMERIS_TYPE":0,"CLASSIFICATION_TYPE":"U","NORAD_CAT_ID":58521,"ELEMENT_SET_NO":999,"REV_AT_EPOCH":12546,"BSTAR":0.00087806012,"MEAN_MOTION_DOT":0.00023376,"MEAN_MOTION_DDOT":0},{"OBJECT_NAME":"FLOCK 4G-26","OBJECT_ID":"2025-009AA","EPOCH":"2026-03-09T19:19:02.910720","MEAN_MOTION":15.27281631,"ECCENTRICITY":0.0001988,"INCLINATION":97.4054,"RA_OF_ASC_NODE":151.3913,"ARG_OF_PERICENTER":299.1273,"MEAN_ANOMALY":60.9767,"EPHEMERIS_TYPE":0,"CLASSIFICATION_TYPE":"U","NORAD_CAT_ID":62633,"ELEMENT_SET_NO":999,"REV_AT_EPOCH":6373,"BSTAR":0.00042468806,"MEAN_MOTION_DOT":0.00011283,"MEAN_MOTION_DDOT":0}]
